{"type": "FeatureCollection", "features": [ {"type": "Feature", "properties": {"norad_id": 66667, "name": "PELICAN-5", "group": "last-30-days", "lat": -11.294266957478094, "lon": -111.67649619037198, "alt_km": 516.0410773661915, "timestamp": "2025-12-24T05:51:18.324618+00:00", "meta": {"OBJECT_NAME": "PELICAN-5", "OBJECT_ID": "2025-276B", "EPOCH": "2025-12-23T22:41:06.100800", "MEAN_MOTION": 15.17608771, "ECCENTRICITY": 0.00022015, "INCLINATION": 97.4413, "RA_OF_ASC_NODE": 69.5257, "ARG_OF_PERICENTER": 210.3972, "MEAN_ANOMALY": 149.7134, "EPHEMERIS_TYPE": 0, "CLASSIFICATION_TYPE": "U", "NORAD_CAT_ID": 66667, "ELEMENT_SET_NO": 999, "REV_AT_EPOCH": 382, "BSTAR": 0.00042183343, "MEAN_MOTION_DOT": 8.418e-05, "MEAN_MOTION_DDOT": 0}, "tle": {"line1": "1 66667U 25276B   25357.94520950  .00008418  00000+0  42183-3 0  9990", "line2": "2 66667  97.4413  69.5257 0002201 210.3972 149.7134 15.17608771  3829"}}, "geometry": {"type": "Point", "coordinates": [-111.67649619037198, -11.294266957478094]}}, {"type": "Feature", "properties": {"norad_id": 66668, "name": "TRANSPORTER-15C", "group": "last-30-days", "lat": 19.201765434791596, "lon": -107.62950593343747, "alt_km": 489.997802072583, "timestamp": "2025-12-24T05:51:18.324629+00:00", "meta": {"OBJECT_NAME": "TRANSPORTER-15C", "OBJECT_ID": "2025-276C", "EPOCH": "2025-12-22T16:55:56.699040", "MEAN_MOTION": 15.2172719, "ECCENTRICITY": 0.00267972, "INCLINATION": 97.4316, "RA_OF_ASC_NODE": 68.2383, "ARG_OF_PERICENTER": 290.281, "MEAN_ANOMALY": 69.5546, "EPHEMERIS_TYPE": 0, "CLASSIFICATION_TYPE": "U", "NORAD_CAT_ID": 66668, "ELEMENT_SET_NO": 999, "REV_AT_EPOCH": 363, "BSTAR": 0.088401316, "MEAN_MOTION_DOT": 0.02259996, "MEAN_MOTION_DDOT": 0}, "tle": {"line1": "1 66668U 25276C   25356.70551735  .02259996  00000+0  88401-1 0  9991", "line2": "2 66668  97.4316  68.2383 0026797 290.2810  69.5546 15.21727190  3639"}}, "geometry": {"type": "Point", "coordinates": [-107.62950593343747, 19.201765434791596]}}, {"type": "Feature", "properties": {"norad_id": 66669, "name": "TRANSPORTER-15D", "group": "last-30-days", "lat": 16.968091245096918, "lon": 67.58078927768825, "alt_km": 508.58623005075333, "timestamp": "2025-12-24T05:51:18.324641+00:00", "meta": {"OBJECT_NAME": "TRANSPORTER-15D", "OBJECT_ID": "2025-276D", "EPOCH": "2025-12-21T02:39:18.210816", "MEAN_MOTION": 15.34134881, "ECCENTRICITY": 0.00748198, "INCLINATION": 97.4314, "RA_OF_ASC_NODE": 66.7079, "ARG_OF_PERICENTER": 232.3102, "MEAN_ANOMALY": 127.1341, "EPHEMERIS_TYPE": 0, "CLASSIFICATION_TYPE": "U", "NORAD_CAT_ID": 66669, "ELEMENT_SET_NO": 999, "REV_AT_EPOCH": 339, "BSTAR": 0.0027830351, "MEAN_MOTION_DOT": 0.00101698, "MEAN_MOTION_DDOT": 0}, "tle": {"line1": "1 66669U 25276D   25355.11062744  .00101698  00000+0  27830-2 0  9996", "line2": "2 66669  97.4314  66.7079 0074819 232.3102 127.1341 15.34134881  3392"}}, "geometry": {"type": "Point", "coordinates": [67.58078927768825, 16.968091245096918]}}, {"type": "Feature", "properties": {"norad_id": 66670, "name": "HUNITY", "group": "last-30-days", "lat": 74.49452788103386, "lon": -82.1846708623603, "alt_km": 513.2755369367242, "timestamp": "2025-12-24T05:51:18.324653+00:00", "meta": {"OBJECT_NAME": "HUNITY", "OBJECT_ID": "2025-276E", "EPOCH": "2025-12-23T13:32:41.599104", "MEAN_MOTION": 15.14778724, "ECCENTRICITY": 0.00045159, "INCLINATION": 97.4308, "RA_OF_ASC_NODE": 69.0882, "ARG_OF_PERICENTER": 49.7951, "MEAN_ANOMALY": 310.3676, "EPHEMERIS_TYPE": 0, "CLASSIFICATION_TYPE": "U", "NORAD_CAT_ID": 66670, "ELEMENT_SET_NO": 999, "REV_AT_EPOCH": 376, "BSTAR": -0.0059587969, "MEAN_MOTION_DOT": -0.00108931, "MEAN_MOTION_DDOT": 0}, "tle": {"line1": "1 66670U 25276E   25357.56437036 -.00108931  00000+0 -59588-2 0  9993", "line2": "2 66670  97.4308  69.0882 0004515  49.7951 310.3676 15.14778724  3769"}}, "geometry": {"type": "Point", "coordinates": [-82.1846708623603, 74.49452788103386]}}, {"type": "Feature", "properties": {"norad_id": 66671, "name": "TRANSPORTER-15F", "group": "last-30-days", "lat": 51.749590637865964, "lon": -100.66274855031017, "alt_km": 511.47666370350635, "timestamp": "2025-12-24T05:51:18.324664+00:00", "meta": {"OBJECT_NAME": "TRANSPORTER-15F", "OBJECT_ID": "2025-276F", "EPOCH": "2025-12-23T21:22:46.612992", "MEAN_MOTION": 15.17134043, "ECCENTRICITY": 0.00051839, "INCLINATION": 97.4418, "RA_OF_ASC_NODE": 69.4466, "ARG_OF_PERICENTER": 248.1825, "MEAN_ANOMALY": 111.8857, "EPHEMERIS_TYPE": 0, "CLASSIFICATION_TYPE": "U", "NORAD_CAT_ID": 66671, "ELEMENT_SET_NO": 999, "REV_AT_EPOCH": 381, "BSTAR": 0.00065237981, "MEAN_MOTION_DOT": 0.0001289, "MEAN_MOTION_DDOT": 0}, "tle": {"line1": "1 66671U 25276F   25357.89081728  .00012890  00000+0  65238-3 0  9999", "line2": "2 66671  97.4418  69.4466 0005183 248.1825 111.8857 15.17134043  3815"}}, "geometry": {"type": "Point", "coordinates": [-100.66274855031017, 51.749590637865964]}}, {"type": "Feature", "properties": {"norad_id": 66672, "name": "TRANSPORTER-15G", "group": "last-30-days", "lat": 78.41535609002985, "lon": -70.62931188520297, "alt_km": 511.86928010011707, "timestamp": "2025-12-24T05:51:18.324674+00:00", "meta": {"OBJECT_NAME": "TRANSPORTER-15G", "OBJECT_ID": "2025-276G", "EPOCH": "2025-12-23T21:30:10.733184", "MEAN_MOTION": 15.16631844, "ECCENTRICITY": 0.00055252, "INCLINATION": 97.439, "RA_OF_ASC_NODE": 69.4315, "ARG_OF_PERICENTER": 246.0847, "MEAN_ANOMALY": 113.9808, "EPHEMERIS_TYPE": 0, "CLASSIFICATION_TYPE": "U", "NORAD_CAT_ID": 66672, "ELEMENT_SET_NO": 999, "REV_AT_EPOCH": 381, "BSTAR": 0.00030790241, "MEAN_MOTION_DOT": 5.957e-05, "MEAN_MOTION_DDOT": 0}, "tle": {"line1": "1 66672U 25276G   25357.89595756  .00005957  00000+0  30790-3 0  9992", "line2": "2 66672  97.4390  69.4315 0005525 246.0847 113.9808 15.16631844  3818"}}, "geometry": {"type": "Point", "coordinates": [-70.62931188520297, 78.41535609002985]}}, {"type": "Feature", "properties": {"norad_id": 66673, "name": "TRANSPORTER-15H", "group": "last-30-days", "lat": 56.815066885808804, "lon": -98.70882093994977, "alt_km": 512.1173680721695, "timestamp": "2025-12-24T05:51:18.324686+00:00", "meta": {"OBJECT_NAME": "TRANSPORTER-15H", "OBJECT_ID": "2025-276H", "EPOCH": "2025-12-23T21:24:09.522432", "MEAN_MOTION": 15.17174921, "ECCENTRICITY": 0.00059154, "INCLINATION": 97.4358, "RA_OF_ASC_NODE": 69.4263, "ARG_OF_PERICENTER": 264.9703, "MEAN_ANOMALY": 95.0856, "EPHEMERIS_TYPE": 0, "CLASSIFICATION_TYPE": "U", "NORAD_CAT_ID": 66673, "ELEMENT_SET_NO": 999, "REV_AT_EPOCH": 381, "BSTAR": 0.0010206775, "MEAN_MOTION_DOT": 0.00020251, "MEAN_MOTION_DDOT": 0}, "tle": {"line1": "1 66673U 25276H   25357.89177688  .00020251  00000+0  10207-2 0  9997", "line2": "2 66673  97.4358  69.4263 0005915 264.9703  95.0856 15.17174921  3810"}}, "geometry": {"type": "Point", "coordinates": [-98.70882093994977, 56.815066885808804]}}, {"type": "Feature", "properties": {"norad_id": 66674, "name": "TRANSPORTER-15J", "group": "last-30-days", "lat": 74.39929700523093, "lon": 41.86265754507242, "alt_km": 523.310233801506, "timestamp": "2025-12-24T05:51:18.324696+00:00", "meta": {"OBJECT_NAME": "TRANSPORTER-15J", "OBJECT_ID": "2025-276J", "EPOCH": "2025-12-21T10:53:16.478880", "MEAN_MOTION": 15.15191397, "ECCENTRICITY": 0.00065005, "INCLINATION": 97.4372, "RA_OF_ASC_NODE": 67.0325, "ARG_OF_PERICENTER": 333.1103, "MEAN_ANOMALY": 26.9792, "EPHEMERIS_TYPE": 0, "CLASSIFICATION_TYPE": "U", "NORAD_CAT_ID": 66674, "ELEMENT_SET_NO": 999, "REV_AT_EPOCH": 344, "BSTAR": -0.028180021, "MEAN_MOTION_DOT": -0.00494676, "MEAN_MOTION_DDOT": 0}, "tle": {"line1": "1 66674U 25276J   25355.45366295 -.00494676  00000+0 -28180-1 0  9998", "line2": "2 66674  97.4372  67.0325 0006500 333.1103  26.9792 15.15191397  3449"}}, "geometry": {"type": "Point", "coordinates": [41.86265754507242, 74.39929700523093]}}, {"type": "Feature", "properties": {"norad_id": 66675, "name": "TRANSPORTER-15K", "group": "last-30-days", "lat": 57.5614613953693, "lon": -98.35771459945799, "alt_km": 511.640828128011, "timestamp": "2025-12-24T05:51:18.324706+00:00", "meta": {"OBJECT_NAME": "TRANSPORTER-15K", "OBJECT_ID": "2025-276K", "EPOCH": "2025-12-23T21:24:18.881280", "MEAN_MOTION": 15.17030389, "ECCENTRICITY": 0.00051262, "INCLINATION": 97.4382, "RA_OF_ASC_NODE": 69.4345, "ARG_OF_PERICENTER": 254.4755, "MEAN_ANOMALY": 105.5912, "EPHEMERIS_TYPE": 0, "CLASSIFICATION_TYPE": "U", "NORAD_CAT_ID": 66675, "ELEMENT_SET_NO": 999, "REV_AT_EPOCH": 381, "BSTAR": 0.00068592483, "MEAN_MOTION_DOT": 0.00013517, "MEAN_MOTION_DDOT": 0}, "tle": {"line1": "1 66675U 25276K   25357.89188520  .00013517  00000+0  68592-3 0  9994", "line2": "2 66675  97.4382  69.4345 0005126 254.4755 105.5912 15.17030389  3814"}}, "geometry": {"type": "Point", "coordinates": [-98.35771459945799, 57.5614613953693]}}, {"type": "Feature", "properties": {"norad_id": 66676, "name": "TRANSPORTER-15L", "group": "last-30-days", "lat": 71.59307681632225, "lon": -87.10909483000621, "alt_km": 512.9277730230806, "timestamp": "2025-12-24T05:51:18.324716+00:00", "meta": {"OBJECT_NAME": "TRANSPORTER-15L", "OBJECT_ID": "2025-276L", "EPOCH": "2025-12-23T02:27:08.955072", "MEAN_MOTION": 15.16252103, "ECCENTRICITY": 7.623e-05, "INCLINATION": 97.4387, "RA_OF_ASC_NODE": 68.6557, "ARG_OF_PERICENTER": 225.8632, "MEAN_ANOMALY": 134.2538, "EPHEMERIS_TYPE": 0, "CLASSIFICATION_TYPE": "U", "NORAD_CAT_ID": 66676, "ELEMENT_SET_NO": 999, "REV_AT_EPOCH": 369, "BSTAR": -0.018710669, "MEAN_MOTION_DOT": -0.00345072, "MEAN_MOTION_DDOT": 0}, "tle": {"line1": "1 66676U 25276L   25357.10218698 -.00345072  00000+0 -18711-1 0  9991", "line2": "2 66676  97.4387  68.6557 0000762 225.8632 134.2538 15.16252103  3691"}}, "geometry": {"type": "Point", "coordinates": [-87.10909483000621, 71.59307681632225]}}]}